#dP2018  7 14  0  0  0.00000000      96 __u+U ITR00 FIT  IAC
## 2009 518400.00000000   900.00000000 58313 0.0000000000000
+   84   C01C02C03C04C05C06C07C08C09C10C11C12C13C14E01E02E03
+        E04E05E07E08E09E11E12E14E18E24E26E30G01G02G03G05G06
+        G07G08G09G10G11G12G13G14G15G16G17G18G19G20G21G22G23
+        G24G25G26G27G28G29G30G31G32J01R01R02R03R04R05R07R08
+        R09R10R11R13R14R15R16R17R18R19R20R21R22R23R24R26  0
++         0  0  0  0  0  0  0  0  0  0  0  0  0  0  0  0  0
++         0  0  0  0  0  0  0  0  0  0  0  0  0  0  0  0  0
++         0  0  0  0  0  0  0  0  0  0  0  0  0  0  0  0  0
++         0  0  0  0  0  0  0  0  0  0  0  0  0  0  0  0  0
++         0  0  0  0  0  0  0  0  0  0  0  0  0  0  0  0  0
%c M  cc GPS ccc cccc cccc cccc cccc ccccc ccccc ccccc ccccc
%c cc cc ccc ccc cccc cccc cccc cccc ccccc ccccc ccccc ccccc
%f  0.0000000  0.000000000  0.00000000000  0.000000000000000
%f  0.0000000  0.000000000  0.00000000000  0.000000000000000
%i    0    0    0    0      0      0      0      0         0
%i    0    0    0    0      0      0      0      0         0
/* INFORMATION & ANALYSIS CENTER (IAC) OF MCC   (RAPID DATA)
/* S/V CLOCKS ARE ALIGNED TO GPS & GLONASS TIME RESPECTIVELY
/* USING THE BROADCAST EPHEMERIS                            
/* PCV:IGS14_2000 OL/AL:FES2004  NONE     YN ORB:CoN CLK:CoN
*  2018 07 14  6 45  0.00000000
PC01 -32336.258397  27033.398280    218.993539    337.204643
PC02      0.000000      0.000000      0.000000 999999.999999
PC03 -14872.767002  39464.678001    851.073444   -257.267661
PC04 -39606.902320  14449.769827    466.109672   -267.572454
PC05  21884.635821  36033.868353    530.026664    303.003795
PC06 -24178.467668  27291.977465 -21168.949608     99.305698
PC07 -13620.628704  36674.783542 -14973.408636     68.250063
PC08  -7946.643553  21306.575223  35592.938203    437.214751
PC09 -10530.763379  27323.073587 -30257.993586     48.432338
PC10  -2670.832556  41850.810394   -732.029655   -384.774750
PC11 -10546.921671 -15314.085968 -20733.550550   -590.603904
PC12  11590.573848 -13088.315293 -21723.074421    515.015931
PC13   3986.196386  28279.230621  31108.319441   -177.217197
PC14     -7.786377 -21263.083694  18110.004956    232.558451
PE01  -3574.516714 -29135.678375  -3868.159309   -390.279506
PE02   3594.283452  29119.156428   3897.933613     19.450844
PE03   -351.588965  19133.776062 -22568.455009    -54.214773
PE04 -18589.843066  -6884.136810  21994.600738    -74.869911
PE05 -19187.463951  20233.971837  -9918.668220    229.131197
PE07  26723.170378  -9510.763015  -8461.922520     -1.728797
PE08  18591.360561   6575.447658 -22066.449278   6544.533072
PE09 -26601.635562   9741.968365   8570.383218   6735.567330
PE11 -25017.496264  -1081.523396  15791.358891   2403.544210
PE12 -25303.832466 -15157.911101  -2608.389126   4597.460935
PE14   4020.650328  14454.772700  17889.232316   6551.657062
PE18  -7791.218580 -19880.652874 -24656.897822   6060.693642
PE24 -15855.453484   5351.779656 -24427.231831   6601.966460
PE26  10367.039688 -13191.438005 -24388.428425   5711.945384
PE30  13727.976951  16839.850106  20092.490131   5679.874450
PG01 -20150.585024 -10010.514144  14194.204118    -65.594102
PG02  14002.313122  22079.700268   5904.105209     58.346827
PG03 -16021.939924    364.755973  21146.785122    105.366106
PG05   5684.327249  19643.362530 -16940.866022     -4.638308
PG06   1367.923654  20353.687413  17023.858717    387.322734
PG07 -14688.324339   5409.374675 -21282.907735    159.237727
PG08 -21379.122001  -6572.393720 -14396.371376   -108.111714
PG09 -24734.013290   7974.590544  -5537.876603    513.731815
PG10  10840.644812 -24075.322790  -1855.883924    188.803468
PG11 -24510.796539  -8505.234718   4679.201238   -730.130899
PG12  13535.359612   5421.138142  22002.987718    321.100256
PG13  13828.066885  12657.528961 -18923.329551    -92.447349
PG14   1583.283687 -15430.898826  21849.921597    -97.619744
PG15  23530.363426   3916.788586 -12294.309704   -350.796470
PG16  -2554.886505 -20183.580502 -17000.391224     17.837355
PG17 -12147.047551  14096.120289  19290.432041    -78.434751
PG18 -19887.685063 -16564.808642   5889.731623     33.396785
PG19  -3059.840247  14676.522686  21641.876590   -420.561558
PG20  14216.212368 -19233.329035 -11574.360236    512.356809
PG21  11405.924979 -10022.670178 -20999.320914   -367.798534
PG22 -13889.350709  -8715.467524  21139.782450   -457.144419
PG23 -26232.897759     71.741162   5721.212346   -214.514044
PG24  21021.360859  12465.849298  10628.970820    -52.511577
PG25  16869.665068 -10446.618213  17356.670722   -615.815725
PG26   3496.569313 -25086.376446  -7773.697580    -84.445378
PG27 -10600.117329 -12675.453501 -20936.665850    361.075869
PG28 -13686.502489  22445.604526  -3336.261953    731.068093
PG29  25813.532061  -4849.601407  -3948.582663    415.138896
PG30  -7209.790659  15335.876776 -20400.078352     50.805293
PG31  -2231.147111 -21191.436374  15618.622446    107.871752
PG32  11670.723760 -15040.890532  18526.534728   -475.504839
PJ01 -31367.324700  27394.168400  11540.506880   -181.018337
PR01  17906.238363  -5219.291077 -17401.386542     29.044725
PR02  18627.055823 -17374.483589    768.256082    319.584048
PR03   7528.262221 -17689.463581  16787.353171    137.633456
PR04  -8280.245029  -7308.348852  23014.944328    268.443035
PR05 -18745.075733   7123.345042  15756.818181    -39.728964
PR07  -7286.224240  17567.802076 -16976.974877    -42.363944
PR08   7692.956995   7820.037314 -22971.607609     22.297369
PR09  -6224.344077  15585.643090 -19168.889072     17.997517
PR10   2549.210737  24766.110712  -5353.986090     27.862044
PR11  10230.128498  19723.954189  12495.477252    -34.531803
PR13   5772.673154 -15590.168796  19335.007882    -12.485761
PR14  -2566.170811 -24800.494006   5452.630235     29.040890
PR15  -8719.254118 -22245.170734  -8795.836765    -13.148857
PR16 -11786.725254  -3838.123745 -22298.630494     96.916655
PR17  -2554.634595 -11757.188984 -22484.568224    147.751877
PR18 -18600.252393 -12123.865100 -12606.472116    202.868727
PR19 -24303.638078  -6327.994154   4463.700945    -56.420099
PR20 -15355.516467   4172.677435  19953.842638   -345.070305
PR21   3044.509716  11779.989816  22416.893966      7.288147
PR22  19847.927032  11705.176340  10797.350142    -55.706031
PR23  23779.622004   3791.760518  -8424.906248    165.628833
PR24  14345.252804  -5068.907632 -20499.564501   -168.852415
PR26 -16041.191489   4021.440547  19418.314493     33.722267
EOF
